OBJECT B                
1 51825U 22019B   24324.78504363  .00020179  00000+0  70896-3 0  9997
2 51825  97.4120  34.7821 0013231  54.6306 305.6168 15.29334331150947
